COSMOS 2251 DEB         
1 34028U 93036HP  24357.91803744  .00000556  00000+0  64960-3 0  9998
2 34028  73.8799 171.1436 0547996   8.0664 144.1696 13.20197666763445
COSMOS 2251 DEB         
1 34031U 93036HS  24357.42016434  .00009333  00000+0  21768-2 0  9990
2 34031  74.0155  91.8310 0027581 299.5192 181.5040 14.54636401833891
COSMOS 2251 DEB         
1 34032U 93036HT  24358.17471414  .00202027  00000+0  11186-1 0  9994
2 34032  74.0061  56.0950 0017143 296.5282  94.9244 15.12693071835538
COSMOS 2251 DEB         
1 34033U 93036HU  24357.69623368  .00184793  00000+0  11377-1 0  9999
2 34033  73.9798  97.4797 0003629 347.3363 135.9216 15.09028427833403
COSMOS 2251 DEB         
1 34035U 93036HW  24357.30861921  .00011016  00000+0  30318-2 0  9992
2 34035  74.0673 294.8299 0044713  29.0294 125.2156 14.46396627828167
COSMOS 2251 DEB         
1 34036U 93036HX  24357.77322425  .00032951  00000+0  53278-2 0  9996
2 34036  74.0310 131.5702 0023460 280.9449  78.9083 14.70989997833252
COSMOS 2251 DEB         
1 34037U 93036HY  24357.35819847  .00002553  00000+0  92475-3 0  9998
2 34037  74.0530 340.1332 0052842 119.5521 241.0913 14.33132263826238
COSMOS 2251 DEB         
1 34040U 93036JB  24357.88653276  .00004550  00000+0  36336-2 0  9994
2 34040  73.9591 291.5585 0345813 315.4249  41.9519 13.66770848787487
COSMOS 2251 DEB         
1 34045U 93036JG  24357.77259125  .00000422  00000+0  16070-3 0  9990
2 34045  74.0381 240.1968 0025599  51.1893   9.6735 14.33788369829458
COSMOS 2251 DEB         
1 34046U 93036JH  24357.32391299  .00005802  00000+0  16998-2 0  9996
2 34046  74.0402 311.9167 0081537 125.8889  24.2388 14.42177706826944
COSMOS 2251 DEB         
1 34050U 93036JM  24358.18623909  .00002420  00000+0  14860-2 0  9991
2 34050  74.0883 257.7378 0218034  47.6231  69.4917 13.95079421805060
COSMOS 2251 DEB         
1 34053U 93036JQ  24357.29799895  .00001134  00000+0  10626-2 0  9990
2 34053  73.8446  94.7206 0426961 302.5747  53.4797 13.48534451778918
COSMOS 2251 DEB         
1 34054U 93036JR  24358.11469774  .00066277  00000+0  50864-2 0  9990
2 34054  74.0189 230.1825 0014838  82.6225  40.4376 15.01349245841783
COSMOS 2251 DEB         
1 34056U 93036JT  24358.15342392  .00005730  00000+0  26237-2 0  9996
2 34056  74.0620 348.8739 0127943 124.3653   3.8935 14.17334629813988
COSMOS 2251 DEB         
1 34057U 93036JU  24358.16052385  .00096174  00000+0  85330-2 0  9999
2 34057  74.0186 278.3974 0017043 135.0689 342.5511 14.95545429839889
COSMOS 2251 DEB         
1 34058U 93036JV  24357.61412571  .00000567  00000+0  53619-3 0  9993
2 34058  73.9356  33.5062 0375654  95.9577  68.5220 13.55493255783290
COSMOS 2251 DEB         
1 34059U 93036JW  24357.86360517  .00006986  00000+0  18194-2 0  9992
2 34059  74.0396 134.1164 0020312 301.7550 215.2191 14.49604018833104
COSMOS 2251 DEB         
1 34061U 93036JY  24357.70235670  .00001563  00000+0  51147-3 0  9991
2 34061  74.0379 199.1250 0020297   5.0736  69.1569 14.39224395830700
COSMOS 2251 DEB         
1 34062U 93036JZ  24357.78733358  .00022452  00000+0  38220-2 0  9992
2 34062  74.0333 109.1918 0095890 281.0226 201.4059 14.65978194833737
COSMOS 2251 DEB         
1 34064U 93036KB  24357.56040339  .00002342  00000+0  74115-3 0  9990
2 34064  74.0319 208.9498 0021803   4.4874  22.4641 14.40560016830247
COSMOS 2251 DEB         
1 34065U 93036KC  24357.98304490  .00000890  00000+0  30564-3 0  9994
2 34065  74.0339 191.3184 0016168  16.9530 139.6981 14.37508280831062
COSMOS 2251 DEB         
1 34070U 93036KH  24357.71777058  .00020472  00000+0  38259-2 0  9991
2 34070  74.0057  87.1647 0029385 292.7178 191.0528 14.64581298833902
COSMOS 2251 DEB         
1 34114U 93036KK  24358.10786550  .00014145  00000+0  37585-2 0  9992
2 34114  74.0631 351.5990 0048674  78.2494 353.5417 14.47915199826555
COSMOS 2251 DEB         
1 34115U 93036KL  24358.03254273  .00011092  00000+0  17692-2 0  9992
2 34115  74.0092 217.2294 0035048 133.4165 226.9934 14.71579029841966
COSMOS 2251 DEB         
1 34116U 93036KM  24358.11674951  .00007763  00000+0  20227-2 0  9999
2 34116  74.0424 130.0880 0013504 297.2187 174.7471 14.49629037833568
COSMOS 2251 DEB         
1 34117U 93036KN  24358.19460654  .00004433  00000+0  14475-2 0  9990
2 34117  74.0404 277.8629 0056457  83.6103 277.1476 14.37957671830506
COSMOS 2251 DEB         
1 34118U 93036KP  24357.75224288  .00018792  00000+0  24745-2 0  9997
2 34118  73.9582 238.4886 0085323 154.8189 275.7657 14.77558906839044
COSMOS 2251 DEB         
1 34120U 93036KR  24357.76793207  .00000719  00000+0  45260-3 0  9999
2 34120  73.9921 110.8319 0184265  15.6883 134.1031 13.98073367810181
COSMOS 2251 DEB         
1 34121U 93036KS  24357.68505968  .00004322  00000+0  27786-2 0  9992
2 34121  73.9957 344.5498 0246261 266.4946 211.6111 13.89662813801883
COSMOS 2251 DEB         
1 34122U 93036KT  24357.69515934  .00008253  00000+0  16804-2 0  9994
2 34122  74.0395  78.5507 0092570  64.3541  87.4345 14.58456095834957
COSMOS 2251 DEB         
1 34126U 93036KX  24358.15580446  .00120219  00000+0  52094-2 0  9998
2 34126  73.9861 341.2760 0031661 260.6509 224.6506 15.21353100849287
COSMOS 2251 DEB         
1 34127U 93036KY  24357.93476819  .00011212  00000+0  42700-2 0  9997
2 34127  74.1835 322.6923 0126663 261.0173 160.5643 14.26599808817359
COSMOS 2251 DEB         
1 34128U 93036KZ  24357.29006237  .00023847  00000+0  30912-2 0  9999
2 34128  74.0070 289.3656 0042615 146.3634 336.7013 14.80081829838735
COSMOS 2251 DEB         
1 34129U 93036LA  24358.18947111  .00014807  00000+0  25697-2 0  9994
2 34129  74.0394 309.1242 0035978 128.3177 232.1237 14.67798912839093
COSMOS 2251 DEB         
1 34136U 93036LH  24358.18216074  .00007395  00000+0  99585-3 0  9991
2 34136  74.0220  19.8890 0094042 234.3055 194.4013 14.76291814847992
COSMOS 2251 DEB         
1 34139U 93036LL  24357.66285997  .00010281  00000+0  25068-2 0  9998
2 34139  74.0324 207.3624 0046319   9.5270  46.7486 14.52109490829821
COSMOS 2251 DEB         
1 34141U 93036LN  24357.35316613  .00009272  00000+0  27058-2 0  9996
2 34141  74.0140 333.5106 0053557 149.7457 331.2370 14.43355678825554
COSMOS 2251 DEB         
1 34270U 93036LQ  24358.13771042  .00002785  00000+0  55444-3 0  9990
2 34270  74.0125 268.2111 0052130 150.9327 209.4760 14.61697102839078
COSMOS 2251 DEB         
1 34271U 93036LR  24357.47749848  .00016325  00000+0  34134-2 0  9993
2 34271  74.0251 163.8718 0022204 310.1241  81.0076 14.59657485830360
COSMOS 2251 DEB         
1 34273U 93036LT  24358.18743241  .00008311  00000+0  18583-2 0  9991
2 34273  74.0386  43.1069 0018060 261.0694 155.4513 14.56755607834673
COSMOS 2251 DEB         
1 34274U 93036LU  24357.52160150  .00009298  00000+0  19757-2 0  9990
2 34274  74.0083  29.9749 0027977 267.3679 214.7659 14.58942787834842
COSMOS 2251 DEB         
1 34275U 93036LV  24358.17794330  .00089628  00000+0  81313-2 0  9998
2 34275  74.0191   7.5785 0012261 301.6320  58.3667 14.94759653836054
COSMOS 2251 DEB         
1 34276U 93036LW  24358.16480499  .00006351  00000+0  15088-2 0  9994
2 34276  74.0261  37.8114 0026349 272.2040 152.2773 14.53886545834516
COSMOS 2251 DEB         
1 34297U 93036MT  24357.71868127  .00000617  00000+0  22009-3 0  9996
2 34297  74.0469 215.9409 0016908  13.4511  49.3123 14.36182781829671
COSMOS 2251 DEB         
1 34299U 93036MV  24357.44652455  .00043654  00000+0  36910-2 0  9996
2 34299  74.0098 356.1410 0111690 181.7850 178.2952 14.93071215836289
COSMOS 2251 DEB         
1 34300U 93036MW  24358.22007567  .00111339  00000+0  84525-2 0  9995
2 34300  74.0038  32.3703 0056500 237.1659 122.4082 15.00341012835306
COSMOS 2251 DEB         
1 34301U 93036MX  24357.47333417  .00024790  00000+0  43700-2 0  9992
2 34301  74.0130 143.1775 0018467 303.3147 115.6524 14.67318610831590
COSMOS 2251 DEB         
1 34302U 93036MY  24358.19666034  .00004793  00000+0  15827-2 0  9997
2 34302  74.1811  51.0448 0083165   4.7306  62.5844 14.36331467826240
COSMOS 2251 DEB         
1 34303U 93036MZ  24357.80338948  .00005362  00000+0  12467-2 0  9995
2 34303  74.0071 237.7612 0150149 102.5131 329.7494 14.48414564828125
COSMOS 2251 DEB         
1 34304U 93036NA  24357.62113941  .00007982  00000+0  25758-2 0  9997
2 34304  74.0163  55.5904 0139987 277.9373 199.9570 14.33852030821998
COSMOS 2251 DEB         
1 34307U 93036ND  24357.92352949  .00001237  00000+0  11409-2 0  9991
2 34307  74.0519 162.0105 0395390  69.5621  79.4253 13.53311072780605
COSMOS 2251 DEB         
1 34313U 93036NK  24358.24272239  .00043648  00000+0  53145-2 0  9992
2 34313  73.9908 306.5402 0031817 187.8959 172.1722 14.82833244837626
COSMOS 2251 DEB         
1 34314U 93036NL  24358.05799125  .00001923  00000+0  93084-3 0  9997
2 34314  74.0043 220.7563 0105445  48.3013  70.4808 14.16247115816484
COSMOS 2251 DEB         
1 34316U 93036NN  24357.31696253  .00027856  00000+0  39979-2 0  9990
2 34316  74.0715 320.6953 0010963 182.6525 177.4594 14.76332997839355
COSMOS 2251 DEB         
1 34317U 93036NP  24358.19753736  .00001942  00000+0  16601-2 0  9993
2 34317  73.9255 259.1271 0339318 315.7456 199.4237 13.64386342788228
COSMOS 2251 DEB         
1 34321U 93036NT  24358.26273372  .00004848  00000+0  13139-2 0  9990
2 34321  74.0302 101.2945 0017488 316.5357  70.5675 14.47831680833715
COSMOS 2251 DEB         
1 34323U 93036NV  24357.75457470  .00022229  00000+0  41558-2 0  9997
2 34323  73.9585  93.6411 0073880 224.7209 262.0609 14.63062323832479
COSMOS 2251 DEB         
1 34325U 93036NX  24357.73719666  .00004294  00000+0  23931-2 0  9992
2 34325  73.8725  97.1392 0196221 182.4415 331.2531 14.01964279805350
COSMOS 2251 DEB         
1 34327U 93036NZ  24357.92034252  .00018153  00000+0  24631-2 0  9993
2 34327  73.9991 156.9397 0040441  62.1189  63.0164 14.78279312842445
COSMOS 2251 DEB         
1 34330U 93036PC  24358.07379341  .01797895  00000+0  18023-1 0  9990
2 34330  73.9837 256.7110 0024229 140.1810 220.1193 15.62215761840543
